GLOBALSTAR M068 [-]     
1 32266U 07048D   23345.89841299 -.00000030  00000+0  40869-3 0  9998
2 32266  51.9859 188.7928 0001559  51.7026  53.6959 12.62774751747942
GLOBALSTAR M079 [+]     
1 37188U 10054A   23345.91749838 -.00000095  00000+0  47117-4 0  9991
2 37188  52.0060  24.0278 0000493 132.6637 285.0163 12.62270459606587
GLOBALSTAR M074 [+]     
1 37189U 10054B   23345.31525708 -.00000092  00000+0  68034-4 0  9992
2 37189  52.0038  25.2688 0000319 110.9509 329.1420 12.62263154607115
GLOBALSTAR M076 [+]     
1 37190U 10054C   23345.89026549 -.00000096  00000+0  42685-4 0  9994
2 37190  52.0053  23.6416 0000585 188.8583 223.9180 12.62264206606905
GLOBALSTAR M077 [+]     
1 37191U 10054D   23346.12713485 -.00000102  00000+0  10082-4 0  9998
2 37191  52.0092 339.6178 0000262  49.4262  59.7626 12.62267244608044
GLOBALSTAR M075 [+]     
1 37192U 10054E   23345.98222271 -.00000108  00000+0 -25659-4 0  9993
2 37192  51.9961  65.9264 0000748 121.7527 288.2048 12.62268048606510
GLOBALSTAR M073 [+]     
1 37193U 10054F   23345.19663608 -.00000097  00000+0  37304-4 0  9996
2 37193  52.0080 341.7129 0000253  74.8241   5.5302 12.62270194607870
GLOBALSTAR M083 [+]     
1 37739U 11033A   23346.16501428 -.00000088  00000+0  90194-4 0  9995
2 37739  51.9871 288.2524 0000904  61.3188  42.2342 12.62263684577379
GLOBALSTAR M088 [+]     
1 37740U 11033B   23345.90081825 -.00000058  00000+0  25433-3 0  9992
2 37740  51.9712 195.0139 0001375  86.3026  16.1515 12.62268766572523
GLOBALSTAR M091 [+]     
1 37741U 11033C   23345.65845404 -.00000088  00000+0  88282-4 0  9991
2 37741  51.9973 158.3167 0001425 101.1589 278.5924 12.62269615573288
GLOBALSTAR M085 [+]     
1 37742U 11033D   23345.66353682 -.00000116  00000+0 -70242-4 0  9995
2 37742  51.9859 109.8284 0001170 114.1884 348.8604 12.62265780573793
GLOBALSTAR M081 [+]     
1 37743U 11033E   23345.69016299 -.00000128  00000+0 -13401-3 0  9995
2 37743  51.9950 112.1926 0001210 121.9000 342.3263 12.62267538573947
GLOBALSTAR M089 [+]     
1 37744U 11033F   23345.57211366 -.00000111  00000+0 -40587-4 0  9993
2 37744  51.9944  66.8837 0000553 145.5697 322.2687 12.62269848575024
GLOBALSTAR M084 [+]     
1 38040U 11080A   23345.18875976 -.00000093  00000+0  59928-4 0  9992
2 38040  52.0025 295.0488 0000414  28.4307  75.2934 12.62268926552703
GLOBALSTAR M080 [+]     
1 38041U 11080B   23346.19222642 -.00000100  00000+0  20952-4 0  9995
2 38041  52.0076 293.4068 0000234  28.5255  77.2208 12.62267112553094
GLOBALSTAR M082 [+]     
1 38042U 11080C   23346.04603976 -.00000060  00000+0  24164-3 0  9996
2 38042  52.0070 249.2380 0001493  63.0843  39.3064 12.62264115553819
GLOBALSTAR M092 [+]     
1 38043U 11080D   23345.30700498 -.00000102  00000+0  96628-5 0  9995
2 38043  52.0110 341.8341 0000193 340.2450 121.9379 12.62247535552005
GLOBALSTAR M090 [+]     
1 38044U 11080E   23345.90885278 -.00000071  00000+0  18466-3 0  9999
2 38044  51.9881 244.1763 0001196  67.0508  12.2518 12.62264462553785
GLOBALSTAR M086 [+]     
1 38045U 11080F   23345.93579133 -.00000076  00000+0  15548-3 0  9996
2 38045  51.9891 244.6039 0001127 119.8288 321.0006 12.62265423553694
GLOBALSTAR M097 [+]     
1 39072U 13005A   23345.78596024 -.00000093  00000+0  61195-4 0  9996
2 39072  52.0020 159.0420 0001384 100.4708 259.6314 12.62273587500928
GLOBALSTAR M093 [+]     
1 39073U 13005B   23345.75943828 -.00000100  00000+0  21221-4 0  9997
2 39073  51.9784 153.3109 0001546 106.3150 253.7887 12.62278240500876
GLOBALSTAR M094 [+]     
1 39074U 13005C   23345.52202945 -.00000109  00000+0 -27094-4 0  9995
2 39074  51.9970  67.8626 0000849 127.7741 232.3202 12.62270171502450
GLOBALSTAR M096 [+]     
1 39075U 13005D   23345.53534394 -.00000115  00000+0 -64287-4 0  9995
2 39075  52.0061 115.9044 0001282 115.0218 245.0782 12.62266927501372
GLOBALSTAR M078 [+]     
1 39076U 13005E   23345.90472840 -.00000074  00000+0  16853-3 0  9992
2 39076  51.9849 200.0444 0001840  56.7054 303.3988 12.62264569500256
GLOBALSTAR M095 [+]     
1 39077U 13005F   23345.77273163 -.00000066  00000+0  21299-3 0  9996
2 39077  51.9776 197.9175 0001791  77.3042 282.8024 12.62271877499880
GLOBALSTAR M087 [+]     
1 52888U 22064A   23345.73152087 -.00000121  00000+0  13757-4 0  9996
2 52888  51.9741 145.5086 0008620 242.8808 117.1213 13.37560071 72308
